"38628 Huya:Huya:2000 EB173" "Sol"
{
	Class	"asteroid"
	Mesh	"roughsphere.cms"
	Texture	"asteroid.*"
	Color	[ 0.301 0.273 0.23 ]
	BlendTexture	true
	SemiAxes	[ 218.05 218.05 187.5 ]
	OrbitFrame
	{
		EclipticJ2000	{ Center "Sol/Huya System" }
	}
	EllipticalOrbit  # best fit
	{
		Epoch	2452400.0  # 2002 May 05 12:00 UT
		Period	3.46293
		SemiMajorAxis	226
		Eccentricity	0.034
		Inclination	65.8
		ArgOfPericenter	280
		AscendingNode	122.9
		MeanAnomaly	147
	}
	UniformRotation  # to match orbit plane
	{
		Period	6.725
		Inclination	65.8
		AscendingNode	122.9
	}
	LunarLambert	0.5
	GeomAlbedo	0.079
	InfoURL	"https://en.wikipedia.org/wiki/38628_Huya"
}

"S 2012 (38628) 1" "Sol/Huya"  # no provisional designation
{
	Class	"asteroid"
	Mesh	"roughsphere.cms"
	Texture	"asteroid.*"
	Color	[ 0.301 0.273 0.23 ]  # assume same color as primary
	BlendTexture	true
	Radius	106.5
	OrbitFrame
	{
		EclipticJ2000	{ Center "Sol/Huya System" }
	}
	EllipticalOrbit  # best fit
	{
		Epoch	2452400.0  # 2002 May 05 12:00 UT
		Period	3.46293
		SemiMajorAxis	1669
		Eccentricity	0.034
		Inclination	65.8
		ArgOfPericenter	100
		AscendingNode	122.9
		MeanAnomaly	147
	}
	BodyFrame	{ EclipticJ2000 {} }
	UniformRotation  # assume synchronous rotation
	{
		Epoch	2452400.0  # 2002 May 05 12:00 UT
		Inclination	65.8
		AscendingNode	122.9
		MeridianAngle	67
	}
	LunarLambert	0.5
	GeomAlbedo	0.079  # assume same albedo as primary
	InfoURL	"https://en.wikipedia.org/wiki/Satellite_of_38628_Huya"
}

# Ragozzine et al. (2024), submitted to PSJ
# "Beyond Point Masses. I.
# New Non-Keplerian Modeling Tools Applied to Trans-Neptunian Triple (47171) Lempo"
# https://ui.adsabs.harvard.edu/abs/2024arXiv240312785R/abstract
ReferencePoint "Lempo System" "Sol"
{
	OrbitFrame
	{
		EclipticJ2000	{ Center "SSB" }
	}
	EllipticalOrbit
	{
		Epoch	2451545.0  # 2000 Jan 01 12:00
		Period	247.2776976692937
		SemiMajorAxis	39.41352561594384
		Eccentricity	0.2246836617176972
		Inclination	8.414658247621224
		AscendingNode	97.11525422843135
		ArgOfPericenter	294.9759913302493
		MeanAnomaly	337.6716728454998
	}
	# Make the orbit and label visible
	Visible true
	Clickable true
}

ReferencePoint "Lempo-Hiisi" "Sol"
{
	OrbitFrame
	{
		EclipticJ2000	{ Center "Sol/Lempo System" }
	}
	EllipticalOrbit  # best fit
	{
		Epoch	2453880.0  # 2006 May 24 12:00 UT
		Period	50.49  # from SMA and masses
		SemiMajorAxis	138  # mass ratio from median values
		Eccentricity	0.2902
		Inclination	59.524
		ArgOfPericenter	178.53
		AscendingNode	324.65
		MeanAnomaly	190.43
	}
	# Make the orbit and label visible
	Visible true
	Clickable true
}

"47171 Lempo:Lempo:1999 TC36:1999 TC36 A1" "Sol"
{
	Class	"asteroid"
	Mesh	"roughsphere.cms"
	Texture	"asteroid.*"
	Color	[ 0.508 0.462 0.391 ]  # assume equal albedo
	BlendTexture	true
	Radius	136
	Mass<kg>	5.725e18
	Density	542
	OrbitFrame
	{
		EclipticJ2000	{ Center "Sol/Lempo-Hiisi" }
	}
	EllipticalOrbit  # best fit
	{
		Epoch	2453880.0  # 2006 May 24 12:00 UT
		Period	1.894  # from SMA and masses
		SemiMajorAxis	486  # mass ratio from median values
		Eccentricity	0.1084
		Inclination	68.229
		ArgOfPericenter	266.0
		AscendingNode	324.89
		MeanAnomaly	165.7
	}
	BodyFrame	{ EclipticJ2000 {} }
	UniformRotation  # assume synchronous rotation
	{
		Epoch	2453880.0  # 2006 May 24 12:00 UT
		Inclination	68.229
		AscendingNode	324.89
		MeridianAngle	251.7
	}
	LunarLambert	0.5
	GeomAlbedo	0.079  # assume equal albedo
	InfoURL	"https://en.wikipedia.org/wiki/47171_Lempo"
}

"Hiisi:47171 Lempo II:Lempo II:1999 TC36 A2" "Sol/Lempo"
{
	Class	"asteroid"
	Mesh	"roughsphere.cms"
	Texture	"asteroid.*"
	Color	[ 0.508 0.462 0.391 ]  # assume equal albedo
	BlendTexture	true
	Radius	125.5
	Mass<kg>	7.657e18
	Density	925
	OrbitFrame
	{
		EclipticJ2000	{ Center "Sol/Lempo-Hiisi" }
	}
	EllipticalOrbit  # best fit
	{
		Epoch	2453880.0  # 2006 May 24 12:00 UT
		Period	1.894  # from SMA and masses
		SemiMajorAxis	364  # mass ratio from median values
		Eccentricity	0.1084
		Inclination	68.229
		ArgOfPericenter	86.0
		AscendingNode	324.89
		MeanAnomaly	165.7
	}
	BodyFrame	{ EclipticJ2000 {} }
	UniformRotation  # assume synchronous rotation
	{
		Epoch	2453880.0  # 2006 May 24 12:00 UT
		Inclination	68.229
		AscendingNode	324.89
		MeridianAngle	71.7
	}
	LunarLambert	0.5
	GeomAlbedo	0.079  # assume equal albedo
	InfoURL	"https://en.wikipedia.org/wiki/47171_Lempo#Hiisi"
}

"Paha:47171 Lempo I:Lempo I:1999 TC36 B" "Sol/Lempo"
{
	Class	"asteroid"
	Mesh	"asteroid.cms"
	Texture	"asteroid.*"
	Color	[ 0.508 0.462 0.391 ]  # assume equal albedo
	BlendTexture	true
	Radius	66
	Mass<kg>	0.248e18
	Density	206
	OrbitFrame
	{
		EclipticJ2000	{ Center "Sol/Lempo System" }
	}
	EllipticalOrbit  # best fit
	{
		Epoch	2453880.0  # 2006 May 24 12:00 UT
		Period	50.49  # from SMA and masses
		SemiMajorAxis	7461  # mass ratio from median values
		Eccentricity	0.2902
		Inclination	59.524
		ArgOfPericenter	358.53
		AscendingNode	324.65
		MeanAnomaly	190.43
	}
	BodyFrame	{ EclipticJ2000 {} }
	UniformRotation  # to match orbit plane
	{
		Period	8  # assumed
		Inclination	59.524
		AscendingNode	324.65
	}
	LunarLambert	0.5
	GeomAlbedo	0.079  # assume equal albedo
	InfoURL	"https://en.wikipedia.org/wiki/47171_Lempo#Paha"
}

# Geometric albedo from Vilenius et al. (2014), A&A 564, A35
# ""TNOs are Cool": A survey of the trans-Neptunian region. X.
# Analysis of classical Kuiper belt objects from Herschel and Spitzer observations"
# https://ui.adsabs.harvard.edu/abs/2014A%26A...564A..35V/abstract
"55565 Aya:Aya:2002 AW197" "Sol"
{
	Class	"asteroid"
	Texture	"asteroid.*"
	Color	[ 0.585 0.55 0.502 ]
	BlendTexture	true
	Radius	384
	OrbitFrame
	{
		EclipticJ2000	{ Center "SSB" }
	}
	EllipticalOrbit
	{
		Epoch	2451545.0  # 2000 Jan 01 12:00
		Period	324.0185930364025
		SemiMajorAxis	47.19564662137787
		Eccentricity	0.1288912802906013
		Inclination	24.38280084723755
		AscendingNode	297.480986917323
		ArgOfPericenter	295.9274588876453
		MeanAnomaly	273.2798227146114
	}
	UniformRotation
	{
		Period	8.86
	}
	LunarLambert	0.5
	GeomAlbedo	0.112
	InfoURL	"https://en.wikipedia.org/wiki/55565_Aya"
}

# Sizes from Grundy et al. (2019), Icarus 334, 62-78
# "Mutual orbit orientations of transneptunian binaries"
# http://www2.lowell.edu/users/grundy/abstracts/2019.TNB_orbits.html
# Actaea's orbit from http://www2.lowell.edu/users/grundy/tnbs/orbits.html
# Retrieved on 2023-12-31.
# Rotation period from Thirouin et al. (2014), A&A 569, A3
# "Rotational properties of the binary and non-binary populations in the trans-Neptunian belt"
# https://ui.adsabs.harvard.edu/abs/2014A%26A...569A...3T/abstract
# Geometric albedo from Brown and Butler (2017), AJ 154, no. 1, 19
# "The Density of Mid-sized Kuiper Belt Objects from ALMA Thermal Observations"
# https://ui.adsabs.harvard.edu/abs/2017AJ....154...19B/abstract
